OBJECT_NAME,OBJECT_ID,EPOCH,MEAN_MOTION,ECCENTRICITY,INCLINATION,RA_OF_ASC_NODE,ARG_OF_PERICENTER,MEAN_ANOMALY,EPHEMERIS_TYPE,CLASSIFICATION_TYPE,NORAD_CAT_ID,ELEMENT_SET_NO,REV_AT_EPOCH,BSTAR,MEAN_MOTION_DOT,MEAN_MOTION_DDOT
STARLINK-33554,2024-220R,2026-07-14T08:04:12.622944,15.27582631,.0000758,42.9944,210.0052,265.9195,94.1570,0,U,62103,999,9232,.21530219E-3,.5668E-4,0
STARLINK-33555,2024-220S,2026-07-14T02:35:41.409024,15.27588792,.0001359,42.9993,211.7355,248.3738,111.6969,0,U,62104,999,9249,.26579377E-3,.7061E-4,0
STARLINK-33559,2024-220V,2026-07-14T02:30:08.704224,15.27585569,.0002207,43.0031,211.7108,285.6858,74.3750,0,U,62107,999,9252,.23950923E-3,.6335E-4,0
STARLINK-33553,2024-220W,2026-07-14T11:44:00.616128,15.27584830,.0001478,43.0011,209.4355,259.2501,100.8184,0,U,62108,999,9258,.25538E-3,.6773E-4,0
STARLINK-33556,2024-220X,2026-07-14T08:15:18.703872,15.27585251,.00007178,42.9957,210.0648,255.7964,104.2807,0,U,62109,999,9258,.19038239E-3,.4981E-4,0
STARLINK-33551,2024-220Y,2026-07-14T11:49:32.769696,15.27592214,.000221,43.0020,209.4670,3.2625,356.8241,0,U,62110,999,9258,.38671E-3,.10398E-3,0
STARLINK-32311,2024-222A,2026-07-14T05:20:03.537024,15.27592144,.00013,43.0000,126.6119,254.2183,105.8526,0,U,62114,999,9243,.36486621E-3,.9795E-4,0
STARLINK-32470,2024-222B,2026-07-14T13:21:12.521088,15.27578565,.0000667,43.0027,139.5346,266.8985,93.1790,0,U,62115,999,9230,.41373E-3,.1114E-3,0
STARLINK-32502,2024-222C,2026-07-14T02:53:33.889632,15.27583906,.00013583,43.0021,142.2763,260.1542,99.9157,0,U,62116,999,9214,.27977677E-3,.7445E-4,0
STARLINK-32521,2024-222D,2026-07-14T13:32:58.887744,15.27581373,.0001503,43.0020,136.0176,271.3430,88.7249,0,U,62117,999,9219,.30531E-3,.8149E-4,0
STARLINK-32549,2024-222E,2026-07-14T13:00:51.975072,15.27562119,.0000438,42.9939,139.4257,3.7891,356.2964,0,U,62118,999,9221,.73141E-4,.1751E-4,0
STARLINK-32535,2024-222F,2026-07-14T12:30:18.199872,15.27581053,.00021976,43.0007,136.6662,251.1013,108.9601,0,U,62119,999,9219,.27271355E-3,.725E-4,0
STARLINK-32548,2024-222G,2026-07-14T00:05:36.239424,15.27588901,.000118,42.9958,143.1196,218.3853,141.6915,0,U,62120,999,9207,.47749196E-3,.12904E-3,0
STARLINK-32525,2024-222H,2026-07-14T13:10:06.259584,15.27576031,.0001095,43.0009,139.4724,264.0518,96.0209,0,U,62121,999,9216,.19105E-3,.4998E-4,0
STARLINK-32628,2024-222J,2026-07-14T13:36:00.568800,15.27579405,.0001182,43.0034,139.6117,275.6246,84.4471,0,U,62122,999,9232,.32375E-3,.8657E-4,0
STARLINK-32626,2024-222K,2026-07-13T08:14:47.490144,15.27588497,.00012874,42.9995,146.7683,289.4656,70.6057,0,U,62123,999,9196,.28724856E-3,.7653E-4,0
STARLINK-32608,2024-222L,2026-07-14T13:26:45.492864,15.27582399,.000159,43.0007,139.5644,267.4416,92.6254,0,U,62124,999,9214,.30671E-3,.8188E-4,0
STARLINK-32488,2024-222M,2026-07-14T12:44:24.457632,15.27580753,.0001687,43.0026,140.1940,260.3998,99.6663,0,U,62125,999,9204,.22283E-3,.5875E-4,0
STARLINK-32490,2024-222N,2026-07-14T13:04:33.358656,15.27582466,.0000383,42.9992,139.4441,318.3835,41.6987,0,U,62126,999,9215,.25875E-3,.6866E-4,0
STARLINK-32557,2024-222P,2026-07-14T04:07:33.801600,15.27593280,.00032097,43.0002,131.2711,235.7312,124.3236,0,U,62127,999,9226,.30099342E-3,.8033E-4,0
STARLINK-32568,2024-222Q,2026-07-14T06:07:26.256000,15.27615197,.00017157,43.0020,141.5685,277.9824,82.0833,0,U,62128,999,9184,.52454907E-3,.14216E-3,0
STARLINK-32462,2024-222R,2026-07-13T04:57:55.270080,15.27591925,.0001553,42.9998,144.0009,260.0641,100.0035,0,U,62129,999,9198,.50259E-3,.13599E-3,0
STARLINK-32463,2024-222S,2026-07-14T05:24:52.138944,15.27584637,.00015659,43.0048,141.3441,250.6213,109.4470,0,U,62130,999,9210,.35215136E-3,.9442E-4,0
STARLINK-32550,2024-222T,2026-07-14T06:16:41.486592,15.27606879,.00009858,43.0000,141.6162,292.1804,67.8943,0,U,62131,999,9215,.4876113E-3,.13191E-3,0
STARLINK-32507,2024-222U,2026-07-14T12:55:18.230880,15.27576347,.0001276,42.9995,139.3916,272.3257,87.7448,0,U,62132,999,9200,.25801E-3,.6844E-4,0
STARLINK-32245,2024-222V,2026-07-14T05:56:19.691232,15.27586064,.00022875,43.0044,141.5101,279.7035,80.3558,0,U,62133,999,9226,.32774866E-3,.8769E-4,0
STARLINK-32546,2024-222W,2026-07-14T04:35:49.747200,15.27581615,.00007469,42.9979,138.4943,323.0909,36.9891,0,U,62134,999,9202,.31684216E-3,.8467E-4,0
STARLINK-32545,2024-222X,2026-07-14T06:33:20.047680,15.27577837,.00016668,43.0006,141.7013,273.5740,86.4921,0,U,62135,999,9215,.44933573E-3,.12122E-3,0
STARLINK-32554,2024-222Y,2026-07-14T13:32:18.424032,15.27583591,.0001034,43.0012,139.5873,266.4588,93.6145,0,U,62136,999,9220,.38899E-3,.10458E-3,0
STARLINK-32570,2024-222Z,2026-07-14T05:50:46.218336,15.27598724,.0002152,43.0035,141.4786,268.2121,91.8484,0,U,62137,999,9225,.444956E-3,.12009E-3,0
