[ {"name": "STARLINK-33554", "line1": "1 62103U 24220R   26195.33625721  .00005668  00000+0  21530-3 0  9992", "line2": "2 62103  42.9944 210.0052 0000758 265.9195  94.1570 15.27582631 92325"}, {"name": "STARLINK-33555", "line1": "1 62104U 24220S   26195.10811816  .00007061  00000+0  26579-3 0  9997", "line2": "2 62104  42.9993 211.7355 0001359 248.3738 111.6969 15.27588792 92499"}, {"name": "STARLINK-33559", "line1": "1 62107U 24220V   26195.10426741  .00006335  00000+0  23951-3 0  9993", "line2": "2 62107  43.0031 211.7108 0002207 285.6858  74.3750 15.27585569 92529"}, {"name": "STARLINK-33553", "line1": "1 62108U 24220W   26195.48889602  .00006773  00000+0  25538-3 0  9993", "line2": "2 62108  43.0011 209.4355 0001478 259.2501 100.8184 15.27584830 92589"}, {"name": "STARLINK-33556", "line1": "1 62109U 24220X   26195.34396648  .00004981  00000+0  19038-3 0  9999", "line2": "2 62109  42.9957 210.0648 0000717 255.7964 104.2807 15.27585251 92587"}, {"name": "STARLINK-33551", "line1": "1 62110U 24220Y   26195.49274039  .00010398  00000+0  38671-3 0  9999", "line2": "2 62110  43.0020 209.4670 0002210   3.2625 356.8241 15.27592214 92583"}, {"name": "STARLINK-32311", "line1": "1 62114U 24222A   26195.22226316  .00009795  00000+0  36487-3 0  9993", "line2": "2 62114  43.0000 126.6119 0001300 254.2183 105.8526 15.27592144 92433"}, {"name": "STARLINK-32470", "line1": "1 62115U 24222B   26195.55639492  .00011140  00000+0  41373-3 0  9990", "line2": "2 62115  43.0027 139.5346 0000667 266.8985  93.1790 15.27578565 92301"}, {"name": "STARLINK-32502", "line1": "1 62116U 24222C   26195.12053113  .00007445  00000+0  27978-3 0  9992", "line2": "2 62116  43.0021 142.2763 0001358 260.1542  99.9157 15.27583906 92142"}, {"name": "STARLINK-32521", "line1": "1 62117U 24222D   26195.56457046  .00008149  00000+0  30531-3 0  9995", "line2": "2 62117  43.0020 136.0176 0001503 271.3430  88.7249 15.27581373 92192"}, {"name": "STARLINK-32549", "line1": "1 62118U 24222E   26195.54226823  .00001751  00000+0  73141-4 0  9998", "line2": "2 62118  42.9939 139.4257 0000438   3.7891 356.2964 15.27562119 92218"}, {"name": "STARLINK-32535", "line1": "1 62119U 24222F   26195.52104398  .00007250  00000+0  27271-3 0  9991", "line2": "2 62119  43.0007 136.6662 0002197 251.1013 108.9601 15.27581053 92190"}, {"name": "STARLINK-32548", "line1": "1 62120U 24222G   26195.00389166  .00012904  00000+0  47749-3 0  9998", "line2": "2 62120  42.9958 143.1196 0001180 218.3853 141.6915 15.27588901 92076"}, {"name": "STARLINK-32525", "line1": "1 62121U 24222H   26195.54868356  .00004998  00000+0  19105-3 0  9990", "line2": "2 62121  43.0009 139.4724 0001095 264.0518  96.0209 15.27576031 92162"}, {"name": "STARLINK-32628", "line1": "1 62122U 24222J   26195.56667325  .00008657  00000+0  32375-3 0  9996", "line2": "2 62122  43.0034 139.6117 0001182 275.6246  84.4471 15.27579405 92320"}, {"name": "STARLINK-32626", "line1": "1 62123U 24222K   26194.34360521  .00007653  00000+0  28725-3 0  9999", "line2": "2 62123  42.9995 146.7683 0001287 289.4656  70.6057 15.27588497 91963"}, {"name": "STARLINK-32608", "line1": "1 62124U 24222L   26195.56024876  .00008188  00000+0  30671-3 0  9992", "line2": "2 62124  43.0007 139.5644 0001590 267.4416  92.6254 15.27582399 92143"}, {"name": "STARLINK-32488", "line1": "1 62125U 24222M   26195.53083863  .00005875  00000+0  22283-3 0  9991", "line2": "2 62125  43.0026 140.1940 0001687 260.3998  99.6663 15.27580753 92048"}, {"name": "STARLINK-32490", "line1": "1 62126U 24222N   26195.54483054  .00006866  00000+0  25875-3 0  9990", "line2": "2 62126  42.9992 139.4441 0000383 318.3835  41.6987 15.27582466 92153"}, {"name": "STARLINK-32557", "line1": "1 62127U 24222P   26195.17191900  .00008033  00000+0  30099-3 0  9998", "line2": "2 62127  43.0002 131.2711 0003209 235.7312 124.3236 15.27593280 92264"}, {"name": "STARLINK-32568", "line1": "1 62128U 24222Q   26195.25516500  .00014216  00000+0  52455-3 0  9995", "line2": "2 62128  43.0020 141.5685 0001715 277.9824  82.0833 15.27615197 91843"}, {"name": "STARLINK-32462", "line1": "1 62129U 24222R   26194.20688970  .00013599  00000+0  50259-3 0  9994", "line2": "2 62129  42.9998 144.0009 0001553 260.0641 100.0035 15.27591925 91986"}, {"name": "STARLINK-32463", "line1": "1 62130U 24222S   26195.22560346  .00009442  00000+0  35215-3 0  9992", "line2": "2 62130  43.0048 141.3441 0001565 250.6213 109.4470 15.27584637 92102"}, {"name": "STARLINK-32550", "line1": "1 62131U 24222T   26195.26159128  .00013191  00000+0  48761-3 0  9995", "line2": "2 62131  43.0000 141.6162 0000985 292.1804  67.8943 15.27606879 92156"}, {"name": "STARLINK-32507", "line1": "1 62132U 24222U   26195.53840545  .00006844  00000+0  25801-3 0  9993", "line2": "2 62132  42.9995 139.3916 0001276 272.3257  87.7448 15.27576347 92006"}, {"name": "STARLINK-32245", "line1": "1 62133U 24222V   26195.24745013  .00008769  00000+0  32775-3 0  9992", "line2": "2 62133  43.0044 141.5101 0002287 279.7035  80.3558 15.27586064 92269"}, {"name": "STARLINK-32546", "line1": "1 62134U 24222W   26195.19154800  .00008467  00000+0  31684-3 0  9998", "line2": "2 62134  42.9979 138.4943 0000746 323.0909  36.9891 15.27581615 92023"}, {"name": "STARLINK-32545", "line1": "1 62135U 24222X   26195.27314870  .00012122  00000+0  44934-3 0  9998", "line2": "2 62135  43.0006 141.7013 0001666 273.5740  86.4921 15.27577837 92155"}, {"name": "STARLINK-32554", "line1": "1 62136U 24222Y   26195.56410213  .00010458  00000+0  38899-3 0  9992", "line2": "2 62136  43.0012 139.5873 0001034 266.4588  93.6145 15.27583591 92200"}, {"name": "STARLINK-32570", "line1": "1 62137U 24222Z   26195.24359049  .00012009  00000+0  44496-3 0  9991", "line2": "2 62137  43.0035 141.4786 0002152 268.2121  91.8484 15.27598724 92251"}]